[{"OBJECT_NAME":"STARLINK-30774","OBJECT_ID":"2023-203H","EPOCH":"2026-03-09T08:58:59.282400","MEAN_MOTION":15.27574396,"ECCENTRICITY":0.00012458,"INCLINATION":43.004,"RA_OF_ASC_NODE":68.829,"ARG_OF_PERICENTER":274.6375,"MEAN_ANOMALY":85.4334,"EPHEMERIS_TYPE":0,"CLASSIFICATION_TYPE":"U","NORAD_CAT_ID":58625,"ELEMENT_SET_NO":999,"REV_AT_EPOCH":12351,"BSTAR":4.910597e-6,"MEAN_MOTION_DOT":-1.27e-6,"MEAN_MOTION_DDOT":0},{"OBJECT_NAME":"HAWK-11B","OBJECT_ID":"2024-247C","EPOCH":"2026-03-09T10:44:06.809856","MEAN_MOTION":15.2884707,"ECCENTRICITY":0.00046902,"INCLINATION":45.0161,"RA_OF_ASC_NODE":115.761,"ARG_OF_PERICENTER":333.0326,"MEAN_ANOMALY":27.0314,"EPHEMERIS_TYPE":0,"CLASSIFICATION_TYPE":"U","NORAD_CAT_ID":62379,"ELEMENT_SET_NO":999,"REV_AT_EPOCH":6773,"BSTAR":0.00032841927,"MEAN_MOTION_DOT":9.093e-5,"MEAN_MOTION_DDOT":0}]
